{
  "type": "FeatureCollection",
  "features": [
    {
      "type": "Feature",
      "properties": {
        "norad_id": 33805,
        "name": "COSMOS 2251 DEB",
        "group": "cosmos-2251-debris",
        "lat": -0.3796598239103506,
        "lon": 134.3525491032093,
        "alt_km": 668.4668536688778,
        "timestamp": "2025-12-11T05:00:26.700992+00:00",
        "meta_object_name": "COSMOS 2251 DEB",
        "meta_object_id": "1993-036AW",
        "meta_epoch": "2025-12-10T21:35:57.102144",
        "meta_mean_motion": 14.57848804,
        "meta_eccentricity": 0.00602764,
        "meta_inclination": 74.0305,
        "meta_ra_of_asc_node": 314.8308,
        "meta_arg_of_pericenter": 144.3337,
        "meta_mean_anomaly": 216.1879,
        "meta_ephemeris_type": 0,
        "meta_classification_type": "U",
        "meta_norad_cat_id": 33805,
        "meta_element_set_no": 999,
        "meta_rev_at_epoch": 89200,
        "meta_bstar": 0.00036624035,
        "meta_mean_motion_dot": 1.689e-05,
        "meta_mean_motion_ddot": 0,
        "tle_line1": "1 33805U 93036AW  25344.89996646  .00001689  00000+0  36624-3 0  9992",
        "tle_line2": "2 33805  74.0305 314.8308 0060276 144.3337 216.1879 14.57848804892005"
      },
      "geometry": {
        "type": "Point",
        "coordinates": [
          134.3525491032093,
          -0.3796598239103506
        ]
      }
    },
    {
      "type": "Feature",
      "properties": {
        "norad_id": 33811,
        "name": "COSMOS 2251 DEB",
        "group": "cosmos-2251-debris",
        "lat": 31.124174574362637,
        "lon": 115.74704766660007,
        "alt_km": 559.7148302683045,
        "timestamp": "2025-12-11T05:00:26.701003+00:00",
        "meta_object_name": "COSMOS 2251 DEB",
        "meta_object_id": "1993-036BC",
        "meta_epoch": "2025-12-10T14:31:10.152768",
        "meta_mean_motion": 15.05158022,
        "meta_eccentricity": 0.0030677,
        "meta_inclination": 73.8381,
        "meta_ra_of_asc_node": 307.0832,
        "meta_arg_of_pericenter": 27.9622,
        "meta_mean_anomaly": 89.4314,
        "meta_ephemeris_type": 0,
        "meta_classification_type": "U",
        "meta_norad_cat_id": 33811,
        "meta_element_set_no": 999,
        "meta_rev_at_epoch": 89986,
        "meta_bstar": 0.0018666,
        "meta_mean_motion_dot": 0.00026947,
        "meta_mean_motion_ddot": 0,
        "tle_line1": "1 33811U 93036BC  25344.60497862  .00026947  00000+0  18666-2 0  9993",
        "tle_line2": "2 33811  73.8381 307.0832 0030677  27.9622  89.4314 15.05158022899860"
      },
      "geometry": {
        "type": "Point",
        "coordinates": [
          115.74704766660007,
          31.124174574362637
        ]
      }
    },
    {
      "type": "Feature",
      "properties": {
        "norad_id": 33815,
        "name": "COSMOS 2251 DEB",
        "group": "cosmos-2251-debris",
        "lat": 32.35954836711599,
        "lon": -10.708926240911643,
        "alt_km": 511.55312250817497,
        "timestamp": "2025-12-11T05:00:26.701013+00:00",
        "meta_object_name": "COSMOS 2251 DEB",
        "meta_object_id": "1993-036BG",
        "meta_epoch": "2025-12-10T00:34:36.803712",
        "meta_mean_motion": 15.1696459,
        "meta_eccentricity": 0.00027751,
        "meta_inclination": 73.9523,
        "meta_ra_of_asc_node": 182.2836,
        "meta_arg_of_pericenter": 231.9732,
        "meta_mean_anomaly": 286.9539,
        "meta_ephemeris_type": 0,
        "meta_classification_type": "U",
        "meta_norad_cat_id": 33815,
        "meta_element_set_no": 999,
        "meta_rev_at_epoch": 88329,
        "meta_bstar": 0.0073023687,
        "meta_mean_motion_dot": 0.00147157,
        "meta_mean_motion_ddot": 0,
        "tle_line1": "1 33815U 93036BG  25344.02403708  .00147157  00000+0  73024-2 0  9995",
        "tle_line2": "2 33815  73.9523 182.2836 0002775 231.9732 286.9539 15.16964590883297"
      },
      "geometry": {
        "type": "Point",
        "coordinates": [
          -10.708926240911643,
          32.35954836711599
        ]
      }
    },
    {
      "type": "Feature",
      "properties": {
        "norad_id": 33816,
        "name": "COSMOS 2251 DEB",
        "group": "cosmos-2251-debris",
        "lat": 31.96591969816779,
        "lon": 118.37794030181928,
        "alt_km": 942.374816768699,
        "timestamp": "2025-12-11T05:00:26.701023+00:00",
        "meta_object_name": "COSMOS 2251 DEB",
        "meta_object_id": "1993-036BH",
        "meta_epoch": "2025-12-10T18:25:07.599648",
        "meta_mean_motion": 13.81779424,
        "meta_eccentricity": 0.02647961,
        "meta_inclination": 73.8947,
        "meta_ra_of_asc_node": 108.7386,
        "meta_arg_of_pericenter": 122.0549,
        "meta_mean_anomaly": 240.6589,
        "meta_ephemeris_type": 0,
        "meta_classification_type": "U",
        "meta_norad_cat_id": 33816,
        "meta_element_set_no": 999,
        "meta_rev_at_epoch": 84646,
        "meta_bstar": 0.00077978589,
        "meta_mean_motion_dot": 1.068e-05,
        "meta_mean_motion_ddot": 0,
        "tle_line1": "1 33816U 93036BH  25344.76744907  .00001068  00000+0  77979-3 0  9990",
        "tle_line2": "2 33816  73.8947 108.7386 0264796 122.0549 240.6589 13.81779424846469"
      },
      "geometry": {
        "type": "Point",
        "coordinates": [
          118.37794030181928,
          31.96591969816779
        ]
      }
    },
    {
      "type": "Feature",
      "properties": {
        "norad_id": 33818,
        "name": "COSMOS 2251 DEB",
        "group": "cosmos-2251-debris",
        "lat": 59.31501624618957,
        "lon": -161.8344601892956,
        "alt_km": 524.872639143302,
        "timestamp": "2025-12-11T05:00:26.701033+00:00",
        "meta_object_name": "COSMOS 2251 DEB",
        "meta_object_id": "1993-036BK",
        "meta_epoch": "2025-12-10T23:04:43.714848",
        "meta_mean_motion": 15.12257187,
        "meta_eccentricity": 0.00275444,
        "meta_inclination": 74.0759,
        "meta_ra_of_asc_node": 169.9158,
        "meta_arg_of_pericenter": 159.4021,
        "meta_mean_anomaly": 0.1181,
        "meta_ephemeris_type": 0,
        "meta_classification_type": "U",
        "meta_norad_cat_id": 33818,
        "meta_element_set_no": 999,
        "meta_rev_at_epoch": 89835,
        "meta_bstar": 0.003157792,
        "meta_mean_motion_dot": 0.00055504,
        "meta_mean_motion_ddot": 0,
        "tle_line1": "1 33818U 93036BK  25344.96161707  .00055504  00000+0  31578-2 0  9993",
        "tle_line2": "2 33818  74.0759 169.9158 0027544 159.4021   0.1181 15.12257187898353"
      },
      "geometry": {
        "type": "Point",
        "coordinates": [
          -161.8344601892956,
          59.31501624618957
        ]
      }
    },
    {
      "type": "Feature",
      "properties": {
        "norad_id": 33819,
        "name": "COSMOS 2251 DEB",
        "group": "cosmos-2251-debris",
        "lat": -74.15128249032715,
        "lon": 119.81855164608996,
        "alt_km": 852.9186999017911,
        "timestamp": "2025-12-11T05:00:26.701043+00:00",
        "meta_object_name": "COSMOS 2251 DEB",
        "meta_object_id": "1993-036BL",
        "meta_epoch": "2025-12-10T16:07:49.005408",
        "meta_mean_motion": 14.32211054,
        "meta_eccentricity": 0.0089009,
        "meta_inclination": 74.1789,
        "meta_ra_of_asc_node": 213.5856,
        "meta_arg_of_pericenter": 75.5382,
        "meta_mean_anomaly": 308.66,
        "meta_ephemeris_type": 0,
        "meta_classification_type": "U",
        "meta_norad_cat_id": 33819,
        "meta_element_set_no": 999,
        "meta_rev_at_epoch": 87466,
        "meta_bstar": 0.0009185,
        "meta_mean_motion_dot": 2.562e-05,
        "meta_mean_motion_ddot": 0,
        "tle_line1": "1 33819U 93036BL  25344.67209497  .00002562  00000+0  91850-3 0  9997",
        "tle_line2": "2 33819  74.1789 213.5856 0089009  75.5382 308.6600 14.32211054874665"
      },
      "geometry": {
        "type": "Point",
        "coordinates": [
          119.81855164608996,
          -74.15128249032715
        ]
      }
    },
    {
      "type": "Feature",
      "properties": {
        "norad_id": 33821,
        "name": "COSMOS 2251 DEB",
        "group": "cosmos-2251-debris",
        "lat": 24.331814471776514,
        "lon": -41.36636634197618,
        "alt_km": 456.92503434855735,
        "timestamp": "2025-12-11T05:00:26.701055+00:00",
        "meta_object_name": "COSMOS 2251 DEB",
        "meta_object_id": "1993-036BN",
        "meta_epoch": "2025-12-10T17:18:38.855520",
        "meta_mean_motion": 15.25109235,
        "meta_eccentricity": 0.00523972,
        "meta_inclination": 74.0302,
        "meta_ra_of_asc_node": 147.1036,
        "meta_arg_of_pericenter": 181.2403,
        "meta_mean_anomaly": 178.8676,
        "meta_ephemeris_type": 0,
        "meta_classification_type": "U",
        "meta_norad_cat_id": 33821,
        "meta_element_set_no": 999,
        "meta_rev_at_epoch": 74970,
        "meta_bstar": 0.0017984405,
        "meta_mean_motion_dot": 0.00047093,
        "meta_mean_motion_ddot": 0,
        "tle_line1": "1 33821U 93036BN  25344.72128305  .00047093  00000+0  17984-2 0  9997",
        "tle_line2": "2 33821  74.0302 147.1036 0052397 181.2403 178.8676 15.25109235749705"
      },
      "geometry": {
        "type": "Point",
        "coordinates": [
          -41.36636634197618,
          24.331814471776514
        ]
      }
    }
  ]
}